[{"OBJECT_NAME":"ONEWEB-0647","OBJECT_ID":"2023-043AK","EPOCH":"2026-03-04T02:09:32.215680","MEAN_MOTION":13.15547084,"ECCENTRICITY":0.0001476,"INCLINATION":87.8942,"RA_OF_ASC_NODE":280.2153,"ARG_OF_PERICENTER":91.8762,"MEAN_ANOMALY":268.2538,"EPHEMERIS_TYPE":0,"CLASSIFICATION_TYPE":"U","NORAD_CAT_ID":56079,"ELEMENT_SET_NO":999,"REV_AT_EPOCH":14260,"BSTAR":-0.00015276,"MEAN_MOTION_DOT":-4.5e-7,"MEAN_MOTION_DDOT":0},{"OBJECT_NAME":"ONEWEB-0651","OBJECT_ID":"2023-043AL","EPOCH":"2026-03-04T02:02:41.540064","MEAN_MOTION":13.15548013,"ECCENTRICITY":0.0001366,"INCLINATION":87.8944,"RA_OF_ASC_NODE":280.2105,"ARG_OF_PERICENTER":80.2515,"MEAN_ANOMALY":279.8769,"EPHEMERIS_TYPE":0,"CLASSIFICATION_TYPE":"U","NORAD_CAT_ID":56080,"ELEMENT_SET_NO":999,"REV_AT_EPOCH":14380,"BSTAR":-9.7595e-5,"MEAN_MOTION_DOT":-2.4e-7,"MEAN_MOTION_DDOT":0},{"OBJECT_NAME":"ONEWEB-0718","OBJECT_ID":"2023-043AM","EPOCH":"2026-03-04T03:45:22.483008","MEAN_MOTION":13.155477,"ECCENTRICITY":0.0002045,"INCLINATION":87.8945,"RA_OF_ASC_NODE":280.1771,"ARG_OF_PERICENTER":82.1539,"MEAN_ANOMALY":277.9824,"EPHEMERIS_TYPE":0,"CLASSIFICATION_TYPE":"U","NORAD_CAT_ID":56081,"ELEMENT_SET_NO":999,"REV_AT_EPOCH":14262,"BSTAR":-0.00023096,"MEAN_MOTION_DOT":-7.4e-7,"MEAN_MOTION_DDOT":0},{"OBJECT_NAME":"ONEWEB-0561","OBJECT_ID":"2023-068A","EPOCH":"2026-03-04T02:57:16.035264","MEAN_MOTION":13.20772833,"ECCENTRICITY":0.0001182,"INCLINATION":87.9176,"RA_OF_ASC_NODE":295.4208,"ARG_OF_PERICENTER":89.655,"MEAN_ANOMALY":270.4719,"EPHEMERIS_TYPE":0,"CLASSIFICATION_TYPE":"U","NORAD_CAT_ID":56710,"ELEMENT_SET_NO":999,"REV_AT_EPOCH":13563,"BSTAR":0.00027583,"MEAN_MOTION_DOT":1.25e-6,"MEAN_MOTION_DDOT":0},{"OBJECT_NAME":"ONEWEB-0668","OBJECT_ID":"2023-068B","EPOCH":"2026-03-04T00:30:26.221248","MEAN_MOTION":13.16593619,"ECCENTRICITY":0.0001899,"INCLINATION":87.9009,"RA_OF_ASC_NODE":249.6858,"ARG_OF_PERICENTER":79.4329,"MEAN_ANOMALY":280.7016,"EPHEMERIS_TYPE":0,"CLASSIFICATION_TYPE":"U","NORAD_CAT_ID":56711,"ELEMENT_SET_NO":999,"REV_AT_EPOCH":13794,"BSTAR":0.0001747,"MEAN_MOTION_DOT":8.0e-7,"MEAN_MOTION_DDOT":0},{"OBJECT_NAME":"ONEWEB-0676","OBJECT_ID":"2023-068C","EPOCH":"2026-03-04T00:41:50.398656","MEAN_MOTION":13.16593828,"ECCENTRICITY":0.0001256,"INCLINATION":87.8997,"RA_OF_ASC_NODE":249.6971,"ARG_OF_PERICENTER":93.0012,"MEAN_ANOMALY":267.1263,"EPHEMERIS_TYPE":0,"CLASSIFICATION_TYPE":"U","NORAD_CAT_ID":56712,"ELEMENT_SET_NO":999,"REV_AT_EPOCH":13786,"BSTAR":0.00011476,"MEAN_MOTION_DOT":5.7e-7,"MEAN_MOTION_DDOT":0},{"OBJECT_NAME":"ONEWEB-0677","OBJECT_ID":"2023-068D","EPOCH":"2026-03-04T02:41:21.494112","MEAN_MOTION":13.20772128,"ECCENTRICITY":0.0001594,"INCLINATION":87.9179,"RA_OF_ASC_NODE":295.4153,"ARG_OF_PERICENTER":77.1445,"MEAN_ANOMALY":282.9866,"EPHEMERIS_TYPE":0,"CLASSIFICATION_TYPE":"U","NORAD_CAT_ID":56713,"ELEMENT_SET_NO":999,"REV_AT_EPOCH":13593,"BSTAR":0.00033887,"MEAN_MOTION_DOT":1.51e-6,"MEAN_MOTION_DDOT":0},{"OBJECT_NAME":"ONEWEB-0678","OBJECT_ID":"2023-068E","EPOCH":"2026-03-04T02:59:44.117088","MEAN_MOTION":13.15547517,"ECCENTRICITY":0.0001509,"INCLINATION":87.8952,"RA_OF_ASC_NODE":280.1654,"ARG_OF_PERICENTER":98.565,"MEAN_ANOMALY":261.5651,"EPHEMERIS_TYPE":0,"CLASSIFICATION_TYPE":"U","NORAD_CAT_ID":56714,"ELEMENT_SET_NO":999,"REV_AT_EPOCH":13547,"BSTAR":0.00056078,"MEAN_MOTION_DOT":2.24e-6,"MEAN_MOTION_DDOT":0},{"OBJECT_NAME":"ONEWEB-0679","OBJECT_ID":"2023-068F","EPOCH":"2026-03-04T01:31:59.651040","MEAN_MOTION":13.16593859,"ECCENTRICITY":0.0001529,"INCLINATION":87.9008,"RA_OF_ASC_NODE":249.6755,"ARG_OF_PERICENTER":72.372,"MEAN_ANOMALY":287.7578,"EPHEMERIS_TYPE":0,"CLASSIFICATION_TYPE":"U","NORAD_CAT_ID":56715,"ELEMENT_SET_NO":999,"REV_AT_EPOCH":13789,"BSTAR":-8.3136e-5,"MEAN_MOTION_DOT":-1.9e-7,"MEAN_MOTION_DDOT":0},{"OBJECT_NAME":"ONEWEB-0680","OBJECT_ID":"2023-068G","EPOCH":"2026-03-04T02:32:19.586400","MEAN_MOTION":13.21823085,"ECCENTRICITY":0.0001847,"INCLINATION":87.9177,"RA_OF_ASC_NODE":264.9186,"ARG_OF_PERICENTER":73.1195,"MEAN_ANOMALY":287.0141,"EPHEMERIS_TYPE":0,"CLASSIFICATION_TYPE":"U","NORAD_CAT_ID":56716,"ELEMENT_SET_NO":999,"REV_AT_EPOCH":13721,"BSTAR":-4.6866e-5,"MEAN_MOTION_DOT":-6.0e-8,"MEAN_MOTION_DDOT":0},{"OBJECT_NAME":"ONEWEB-0681","OBJECT_ID":"2023-068H","EPOCH":"2026-03-04T02:02:41.164224","MEAN_MOTION":13.21825146,"ECCENTRICITY":6.19e-5,"INCLINATION":87.9165,"RA_OF_ASC_NODE":264.932,"ARG_OF_PERICENTER":78.6939,"MEAN_ANOMALY":281.4264,"EPHEMERIS_TYPE":0,"CLASSIFICATION_TYPE":"U","NORAD_CAT_ID":56717,"ELEMENT_SET_NO":999,"REV_AT_EPOCH":13720,"BSTAR":-0.00013771,"MEAN_MOTION_DOT":-4.4e-7,"MEAN_MOTION_DDOT":0},{"OBJECT_NAME":"ONEWEB-0682","OBJECT_ID":"2023-068J","EPOCH":"2026-03-04T03:37:23.291328","MEAN_MOTION":13.15547764,"ECCENTRICITY":0.0001787,"INCLINATION":87.8945,"RA_OF_ASC_NODE":280.1672,"ARG_OF_PERICENTER":71.6572,"MEAN_ANOMALY":288.4752,"EPHEMERIS_TYPE":0,"CLASSIFICATION_TYPE":"U","NORAD_CAT_ID":56718,"ELEMENT_SET_NO":999,"REV_AT_EPOCH":13564,"BSTAR":-0.00016117,"MEAN_MOTION_DOT":-4.8e-7,"MEAN_MOTION_DDOT":0},{"OBJECT_NAME":"ONEWEB-0683","OBJECT_ID":"2023-068K","EPOCH":"2026-03-04T02:18:39.882816","MEAN_MOTION":13.15547548,"ECCENTRICITY":0.0001738,"INCLINATION":87.8956,"RA_OF_ASC_NODE":280.1699,"ARG_OF_PERICENTER":80.5294,"MEAN_ANOMALY":279.6033,"EPHEMERIS_TYPE":0,"CLASSIFICATION_TYPE":"U","NORAD_CAT_ID":56719,"ELEMENT_SET_NO":999,"REV_AT_EPOCH":13560,"BSTAR":-1.7621e-5,"MEAN_MOTION_DOT":6.0e-8,"MEAN_MOTION_DDOT":0},{"OBJECT_NAME":"ONEWEB-0684","OBJECT_ID":"2023-068L","EPOCH":"2026-03-04T02:30:04.492224","MEAN_MOTION":13.155473,"ECCENTRICITY":0.0002444,"INCLINATION":87.8951,"RA_OF_ASC_NODE":280.1614,"ARG_OF_PERICENTER":118.9529,"MEAN_ANOMALY":241.1847,"EPHEMERIS_TYPE":0,"CLASSIFICATION_TYPE":"U","NORAD_CAT_ID":56720,"ELEMENT_SET_NO":999,"REV_AT_EPOCH":13543,"BSTAR":0.00011638,"MEAN_MOTION_DOT":5.7e-7,"MEAN_MOTION_DDOT":0},{"OBJECT_NAME":"ONEWEB-0686","OBJECT_ID":"2023-068M","EPOCH":"2026-03-04T00:34:59.573568","MEAN_MOTION":13.16593783,"ECCENTRICITY":0.0001946,"INCLINATION":87.899,"RA_OF_ASC_NODE":249.7228,"ARG_OF_PERICENTER":94.0903,"MEAN_ANOMALY":266.045,"EPHEMERIS_TYPE":0,"CLASSIFICATION_TYPE":"U","NORAD_CAT_ID":56721,"ELEMENT_SET_NO":999,"REV_AT_EPOCH":13787,"BSTAR":0.00019415,"MEAN_MOTION_DOT":8.7e-7,"MEAN_MOTION_DDOT":0},{"OBJECT_NAME":"ONEWEB-0694","OBJECT_ID":"2023-068N","EPOCH":"2026-03-04T00:44:07.175040","MEAN_MOTION":13.16593293,"ECCENTRICITY":0.0001856,"INCLINATION":87.9009,"RA_OF_ASC_NODE":249.666,"ARG_OF_PERICENTER":80.7424,"MEAN_ANOMALY":279.3917,"EPHEMERIS_TYPE":0,"CLASSIFICATION_TYPE":"U","NORAD_CAT_ID":56722,"ELEMENT_SET_NO":999,"REV_AT_EPOCH":13793,"BSTAR":0.00016085,"MEAN_MOTION_DOT":7.4e-7,"MEAN_MOTION_DDOT":0},{"OBJECT_NAME":"ONEWEB-0696","OBJECT_ID":"2023-068P","EPOCH":"2026-03-04T03:17:59.522208","MEAN_MOTION":13.15549404,"ECCENTRICITY":0.0001629,"INCLINATION":87.8942,"RA_OF_ASC_NODE":280.201,"ARG_OF_PERICENTER":105.9252,"MEAN_ANOMALY":254.2057,"EPHEMERIS_TYPE":0,"CLASSIFICATION_TYPE":"U","NORAD_CAT_ID":56723,"ELEMENT_SET_NO":999,"REV_AT_EPOCH":13555,"BSTAR":0.00024855,"MEAN_MOTION_DOT":1.06e-6,"MEAN_MOTION_DDOT":0}]
