ONEWEB-0647             
1 56079U 23043AK  26063.08995620 -.00000045  00000+0 -15276-3 0  9999
2 56079  87.8942 280.2153 0001476  91.8762 268.2538 13.15547084142604
ONEWEB-0651             
1 56080U 23043AL  26063.08520301 -.00000024  00000+0 -97595-4 0  9993
2 56080  87.8944 280.2105 0001366  80.2515 279.8769 13.15548013143801
ONEWEB-0718             
1 56081U 23043AM  26063.15651022 -.00000074  00000+0 -23096-3 0  9996
2 56081  87.8945 280.1771 0002045  82.1539 277.9824 13.15547700142625
ONEWEB-0561             
1 56710U 23068A   26063.12310226  .00000125  00000+0  27583-3 0  9997
2 56710  87.9176 295.4208 0001182  89.6550 270.4719 13.20772833135638
ONEWEB-0668             
1 56711U 23068B   26063.02113682  .00000080  00000+0  17470-3 0  9998
2 56711  87.9009 249.6858 0001899  79.4329 280.7016 13.16593619137940
ONEWEB-0676             
1 56712U 23068C   26063.02905554  .00000057  00000+0  11476-3 0  9990
2 56712  87.8997 249.6971 0001256  93.0012 267.1263 13.16593828137866
ONEWEB-0677             
1 56713U 23068D   26063.11205433  .00000151  00000+0  33887-3 0  9995
2 56713  87.9179 295.4153 0001594  77.1445 282.9866 13.20772128135936
ONEWEB-0678             
1 56714U 23068E   26063.12481617  .00000224  00000+0  56078-3 0  9995
2 56714  87.8952 280.1654 0001509  98.5650 261.5651 13.15547517135473
ONEWEB-0679             
1 56715U 23068F   26063.06388485 -.00000019  00000+0 -83136-4 0  9998
2 56715  87.9008 249.6755 0001529  72.3720 287.7578 13.16593859137896
ONEWEB-0680             
1 56716U 23068G   26063.10578225 -.00000006  00000+0 -46866-4 0  9992
2 56716  87.9177 264.9186 0001847  73.1195 287.0141 13.21823085137218
ONEWEB-0681             
1 56717U 23068H   26063.08519866 -.00000044  00000+0 -13771-3 0  9996
2 56717  87.9165 264.9320 0000619  78.6939 281.4264 13.21825146137201
ONEWEB-0682             
1 56718U 23068J   26063.15096402 -.00000048  00000+0 -16117-3 0  9992
2 56718  87.8945 280.1672 0001787  71.6572 288.4752 13.15547764135645
ONEWEB-0683             
1 56719U 23068K   26063.09629494  .00000006  00000+0 -17621-4 0  9994
2 56719  87.8956 280.1699 0001738  80.5294 279.6033 13.15547548135603
ONEWEB-0684             
1 56720U 23068L   26063.10421866  .00000057  00000+0  11638-3 0  9997
2 56720  87.8951 280.1614 0002444 118.9529 241.1847 13.15547300135433
ONEWEB-0686             
1 56721U 23068M   26063.02430062  .00000087  00000+0  19415-3 0  9991
2 56721  87.8990 249.7228 0001946  94.0903 266.0450 13.16593783137878
ONEWEB-0694             
1 56722U 23068N   26063.03063860  .00000074  00000+0  16085-3 0  9997
2 56722  87.9009 249.6660 0001856  80.7424 279.3917 13.16593293137938
ONEWEB-0696             
1 56723U 23068P   26063.13749447  .00000106  00000+0  24855-3 0  9991
2 56723  87.8942 280.2010 0001629 105.9252 254.2057 13.15549404135558
